IRIDIUM 26              
1 24903U 97043A   25128.98597212  .00000552  00000+0  17921-3 0  9996
2 24903  86.3928 127.0927 0002185  93.7804 266.3644 14.37113520451111
IRIDIUM 22              
1 24907U 97043E   25129.51063360  .00000433  00000+0  14240-3 0  9991
2 24907  86.3936 130.3773 0002335  90.9329 269.2135 14.35931016451212
DUMMY MASS 1            
1 24925U 97048A   25129.52045770  .00000462  00000+0  48583-4 0  9992
2 24925  86.3349 153.2067 0004292 291.3575  68.7192 14.86956115499629
DUMMY MASS 2            
1 24926U 97048B   25129.47616815  .00000454  00000+0  47982-4 0  9994
2 24926  86.3352 154.8264 0005326 306.8258  53.2478 14.86708818499394
IRIDIUM 29              
1 24944U 97051A   25129.47753819  .00000457  00000+0  14932-3 0  9995
2 24944  86.3974 160.1300 0002476  88.5476 271.6005 14.36435779447937
IRIDIUM 33              
1 24946U 97051C   25129.48674114  .00000350  00000+0  11626-3 0  9997
2 24946  86.3888 159.3831 0007228 187.9623 172.1460 14.34870185447202
IRIDIUM 28              
1 24948U 97051E   25128.98878813  .00000440  00000+0  14093-3 0  9996
2 24948  86.3976 157.8748 0002118 102.4802 257.6632 14.37359672448214
IRIDIUM 36              
1 24967U 97056C   25129.23660265  .00000485  00000+0  15516-3 0  9991
2 24967  86.4017 189.3459 0002480  98.9478 261.2000 14.37580132446621
